{
  "type": "FeatureCollection",
  "features": [
    {
      "type": "Feature",
      "properties": {
        "norad_id": 31888,
        "name": "FENGYUN 1C DEB",
        "group": "fengyun-1c-debris",
        "lat": 52.066253308341835,
        "lon": 109.32205062550527,
        "alt_km": 770.944613346016,
        "timestamp": "2025-12-16T17:51:11.216309+00:00",
        "meta_object_name": "FENGYUN 1C DEB",
        "meta_object_id": "1999-025CKP",
        "meta_epoch": "2025-12-14T01:37:35.065344",
        "meta_mean_motion": 14.33953322,
        "meta_eccentricity": 0.0017525,
        "meta_inclination": 99.155,
        "meta_ra_of_asc_node": 274.5505,
        "meta_arg_of_pericenter": 212.8144,
        "meta_mean_anomaly": 147.1952,
        "meta_ephemeris_type": 0,
        "meta_classification_type": "U",
        "meta_norad_cat_id": 31888,
        "meta_element_set_no": 999,
        "meta_rev_at_epoch": 95656,
        "meta_bstar": 0.0022264011,
        "meta_mean_motion_dot": 6.177e-05,
        "meta_mean_motion_ddot": 0,
        "tle_line1": "1 31888U 99025CKP 25348.06776696  .00006177  00000+0  22264-2 0  9990",
        "tle_line2": "2 31888  99.1550 274.5505 0017525 212.8144 147.1952 14.33953322956564"
      },
      "geometry": {
        "type": "Point",
        "coordinates": [
          109.32205062550527,
          52.066253308341835
        ]
      }
    },
    {
      "type": "Feature",
      "properties": {
        "norad_id": 31890,
        "name": "FENGYUN 1C DEB",
        "group": "fengyun-1c-debris",
        "lat": -5.103086425449681,
        "lon": -178.64403239369415,
        "alt_km": 826.0531460590428,
        "timestamp": "2025-12-16T17:51:11.216319+00:00",
        "meta_object_name": "FENGYUN 1C DEB",
        "meta_object_id": "1999-025CKR",
        "meta_epoch": "2025-12-15T06:54:50.639040",
        "meta_mean_motion": 14.10134037,
        "meta_eccentricity": 0.00716857,
        "meta_inclination": 98.7188,
        "meta_ra_of_asc_node": 0.7301,
        "meta_arg_of_pericenter": 234.9125,
        "meta_mean_anomaly": 124.531,
        "meta_ephemeris_type": 0,
        "meta_classification_type": "U",
        "meta_norad_cat_id": 31890,
        "meta_element_set_no": 999,
        "meta_rev_at_epoch": 64188,
        "meta_bstar": 8.7675244e-05,
        "meta_mean_motion_dot": 1.16e-06,
        "meta_mean_motion_ddot": 0,
        "tle_line1": "1 31890U 99025CKR 25349.28808610  .00000116  00000+0  87675-4 0  9996",
        "tle_line2": "2 31890  98.7188   0.7301 0071685 234.9125 124.5310 14.10134037641885"
      },
      "geometry": {
        "type": "Point",
        "coordinates": [
          -178.64403239369415,
          -5.103086425449681
        ]
      }
    },
    {
      "type": "Feature",
      "properties": {
        "norad_id": 31891,
        "name": "FENGYUN 1C DEB",
        "group": "fengyun-1c-debris",
        "lat": -2.4589713882292283,
        "lon": -174.69247632028444,
        "alt_km": 852.1464594187219,
        "timestamp": "2025-12-16T17:51:11.216329+00:00",
        "meta_object_name": "FENGYUN 1C DEB",
        "meta_object_id": "1999-025CKS",
        "meta_epoch": "2025-12-15T19:52:30.075168",
        "meta_mean_motion": 13.66206716,
        "meta_eccentricity": 0.02249943,
        "meta_inclination": 99.4028,
        "meta_ra_of_asc_node": 4.8258,
        "meta_arg_of_pericenter": 175.3604,
        "meta_mean_anomaly": 184.9698,
        "meta_ephemeris_type": 0,
        "meta_classification_type": "U",
        "meta_norad_cat_id": 31891,
        "meta_element_set_no": 999,
        "meta_rev_at_epoch": 92452,
        "meta_bstar": 0.00051292633,
        "meta_mean_motion_dot": 4.61e-06,
        "meta_mean_motion_ddot": 0,
        "tle_line1": "1 31891U 99025CKS 25349.82812587  .00000461  00000+0  51293-3 0  9994",
        "tle_line2": "2 31891  99.4028   4.8258 0224994 175.3604 184.9698 13.66206716924524"
      },
      "geometry": {
        "type": "Point",
        "coordinates": [
          -174.69247632028444,
          -2.4589713882292283
        ]
      }
    },
    {
      "type": "Feature",
      "properties": {
        "norad_id": 31892,
        "name": "FENGYUN 1C DEB",
        "group": "fengyun-1c-debris",
        "lat": 55.20821140657303,
        "lon": -5.523453859690736,
        "alt_km": 872.7915380176255,
        "timestamp": "2025-12-16T17:51:11.216340+00:00",
        "meta_object_name": "FENGYUN 1C DEB",
        "meta_object_id": "1999-025CKT",
        "meta_epoch": "2025-12-06T17:19:53.766912",
        "meta_mean_motion": 14.41156255,
        "meta_eccentricity": 0.01986119,
        "meta_inclination": 99.2881,
        "meta_ra_of_asc_node": 149.9643,
        "meta_arg_of_pericenter": 304.4066,
        "meta_mean_anomaly": 53.8482,
        "meta_ephemeris_type": 0,
        "meta_classification_type": "U",
        "meta_norad_cat_id": 31892,
        "meta_element_set_no": 999,
        "meta_rev_at_epoch": 64819,
        "meta_bstar": 0.001005312,
        "meta_mean_motion_dot": 4.04e-05,
        "meta_mean_motion_ddot": 0,
        "tle_line1": "1 31892U 99025CKT 25340.72215008  .00004040  00000+0  10053-2 0  9995",
        "tle_line2": "2 31892  99.2881 149.9643 0198611 304.4066  53.8482 14.41156255648199"
      },
      "geometry": {
        "type": "Point",
        "coordinates": [
          -5.523453859690736,
          55.20821140657303
        ]
      }
    },
    {
      "type": "Feature",
      "properties": {
        "norad_id": 31893,
        "name": "FENGYUN 1C DEB",
        "group": "fengyun-1c-debris",
        "lat": 76.55851313436881,
        "lon": 171.36367448349358,
        "alt_km": 774.6632475328915,
        "timestamp": "2025-12-16T17:51:11.216351+00:00",
        "meta_object_name": "FENGYUN 1C DEB",
        "meta_object_id": "1999-025CKU",
        "meta_epoch": "2025-12-12T15:47:49.240320",
        "meta_mean_motion": 14.6375851,
        "meta_eccentricity": 0.01749458,
        "meta_inclination": 99.0698,
        "meta_ra_of_asc_node": 304.9273,
        "meta_arg_of_pericenter": 327.0001,
        "meta_mean_anomaly": 214.4613,
        "meta_ephemeris_type": 0,
        "meta_classification_type": "U",
        "meta_norad_cat_id": 31893,
        "meta_element_set_no": 999,
        "meta_rev_at_epoch": 98403,
        "meta_bstar": 0.0006699444,
        "meta_mean_motion_dot": 4.296e-05,
        "meta_mean_motion_ddot": 0,
        "tle_line1": "1 31893U 99025CKU 25346.65820880  .00004296  00000+0  66994-3 0  9993",
        "tle_line2": "2 31893  99.0698 304.9273 0174945 327.0001 214.4613 14.63758510984033"
      },
      "geometry": {
        "type": "Point",
        "coordinates": [
          171.36367448349358,
          76.55851313436881
        ]
      }
    },
    {
      "type": "Feature",
      "properties": {
        "norad_id": 31895,
        "name": "FENGYUN 1C DEB",
        "group": "fengyun-1c-debris",
        "lat": 41.106431107799594,
        "lon": -152.50245651707564,
        "alt_km": 945.9790151370171,
        "timestamp": "2025-12-16T17:51:11.216381+00:00",
        "meta_object_name": "FENGYUN 1C DEB",
        "meta_object_id": "1999-025CKW",
        "meta_epoch": "2025-12-15T20:12:52.058016",
        "meta_mean_motion": 13.75543628,
        "meta_eccentricity": 0.02270644,
        "meta_inclination": 99.0956,
        "meta_ra_of_asc_node": 18.6017,
        "meta_arg_of_pericenter": 221.3655,
        "meta_mean_anomaly": 137.0107,
        "meta_ephemeris_type": 0,
        "meta_classification_type": "U",
        "meta_norad_cat_id": 31895,
        "meta_element_set_no": 999,
        "meta_rev_at_epoch": 61939,
        "meta_bstar": 0.0018280731,
        "meta_mean_motion_dot": 2.083e-05,
        "meta_mean_motion_ddot": 0,
        "tle_line1": "1 31895U 99025CKW 25349.84226919  .00002083  00000+0  18281-2 0  9999",
        "tle_line2": "2 31895  99.0956  18.6017 0227064 221.3655 137.0107 13.75543628619395"
      },
      "geometry": {
        "type": "Point",
        "coordinates": [
          -152.50245651707564,
          41.106431107799594
        ]
      }
    },
    {
      "type": "Feature",
      "properties": {
        "norad_id": 31898,
        "name": "FENGYUN 1C DEB",
        "group": "fengyun-1c-debris",
        "lat": -61.85830549242039,
        "lon": 19.12061921407399,
        "alt_km": 590.5034867489994,
        "timestamp": "2025-12-16T17:51:11.216392+00:00",
        "meta_object_name": "FENGYUN 1C DEB",
        "meta_object_id": "1999-025CKZ",
        "meta_epoch": "2025-12-09T09:45:56.221344",
        "meta_mean_motion": 14.68362334,
        "meta_eccentricity": 0.01439261,
        "meta_inclination": 98.7065,
        "meta_ra_of_asc_node": 207.9611,
        "meta_arg_of_pericenter": 229.9634,
        "meta_mean_anomaly": 128.887,
        "meta_ephemeris_type": 0,
        "meta_classification_type": "U",
        "meta_norad_cat_id": 31898,
        "meta_element_set_no": 999,
        "meta_rev_at_epoch": 65663,
        "meta_bstar": 0.0015942515,
        "meta_mean_motion_dot": 0.00010733,
        "meta_mean_motion_ddot": 0,
        "tle_line1": "1 31898U 99025CKZ 25343.40690071  .00010733  00000+0  15943-2 0  9995",
        "tle_line2": "2 31898  98.7065 207.9611 0143926 229.9634 128.8870 14.68362334656632"
      },
      "geometry": {
        "type": "Point",
        "coordinates": [
          19.12061921407399,
          -61.85830549242039
        ]
      }
    }
  ]
}